[{"OBJECT_NAME":"SNAP-3 ALICE","OBJECT_ID":"2015-058G","EPOCH":"2026-03-09T23:07:48.978048","MEAN_MOTION":15.43691989,"ECCENTRICITY":0.00373618,"INCLINATION":64.7559,"RA_OF_ASC_NODE":82.4068,"ARG_OF_PERICENTER":68.3259,"MEAN_ANOMALY":292.185,"EPHEMERIS_TYPE":0,"CLASSIFICATION_TYPE":"U","NORAD_CAT_ID":40970,"ELEMENT_SET_NO":999,"REV_AT_EPOCH":10149,"BSTAR":0.0014230807,"MEAN_MOTION_DOT":0.0006659,"MEAN_MOTION_DDOT":0},{"OBJECT_NAME":"STARLINK-36281","OBJECT_ID":"2026-018S","EPOCH":"2026-03-09T22:00:01.999584","MEAN_MOTION":15.67656978,"ECCENTRICITY":0.0001832,"INCLINATION":97.2841,"RA_OF_ASC_NODE":134.8252,"ARG_OF_PERICENTER":80.2568,"MEAN_ANOMALY":121.7467,"EPHEMERIS_TYPE":0,"CLASSIFICATION_TYPE":"U","NORAD_CAT_ID":67605,"ELEMENT_SET_NO":999,"REV_AT_EPOCH":603,"BSTAR":-0.02025557,"MEAN_MOTION_DOT":-0.0195094,"MEAN_MOTION_DDOT":0}]
